{
  "norad_id": 66426,
  "name": "STARLINK-35589",
  "history": [
    {
      "epoch": "2026-03-28T22:18:53.527680Z",
      "apogee_km": 483.2424923456065,
      "perigee_km": 482.8006337341467,
      "latitude_deg": 4.075698444301046e-05,
      "longitude_deg": 4.6412364260071515,
      "height_km": 482.7785920428007,
      "semi_major_axis_km": 6861.158563039877,
      "eccentricity": 3.22e-05,
      "inclination_deg": 43.0025,
      "raan_deg": 165.7074,
      "arg_perigee_deg": 85.2436,
      "mean_anomaly_deg": 274.8453,
      "mean_motion_rev_day": 15.27589195
    },
    {
      "epoch": "2026-03-30T04:07:51.544704Z",
      "apogee_km": 483.1313982854299,
      "perigee_km": 482.8514642454347,
      "latitude_deg": -5.2513996945041305e-06,
      "longitude_deg": -90.83685392280755,
      "height_km": 482.62675478409454,
      "semi_major_axis_km": 6861.1284312654325,
      "eccentricity": 2.04e-05,
      "inclination_deg": 42.9985,
      "raan_deg": 158.6956,
      "arg_perigee_deg": 1.2938,
      "mean_anomaly_deg": 358.7914,
      "mean_motion_rev_day": 15.27599258
    },
    {
      "epoch": "2026-03-30T05:42:00.715392Z",
      "apogee_km": 484.04015792948303,
      "perigee_km": 482.04698497347545,
      "latitude_deg": 9.47586202113668e-06,
      "longitude_deg": -114.81119467405075,
      "height_km": 483.02780112895545,
      "semi_major_axis_km": 6861.1805714514785,
      "eccentricity": 0.00014525,
      "inclination_deg": 43.0017,
      "raan_deg": 158.3239,
      "arg_perigee_deg": 257.9912,
      "mean_anomaly_deg": 102.0777,
      "mean_motion_rev_day": 15.27581845
    },
    {
      "epoch": "2026-03-30T13:32:47.752512Z",
      "apogee_km": 484.04814071484,
      "perigee_km": 481.99610524433956,
      "latitude_deg": 2.0674836254293293e-05,
      "longitude_deg": 125.32498948083341,
      "height_km": 482.87005934873963,
      "semi_major_axis_km": 6861.1591229795895,
      "eccentricity": 0.00014954,
      "inclination_deg": 43.0023,
      "raan_deg": 156.4783,
      "arg_perigee_deg": 266.0367,
      "mean_anomaly_deg": 94.0314,
      "mean_motion_rev_day": 15.27589008
    },
    {
      "epoch": "2026-03-30T21:23:34.771488Z",
      "apogee_km": 483.8710132964152,
      "perigee_km": 482.15517688063574,
      "latitude_deg": 5.247513947381147e-05,
      "longitude_deg": 5.460271416973054,
      "height_km": 482.5890488420315,
      "semi_major_axis_km": 6861.150095088526,
      "eccentricity": 0.00012504,
      "inclination_deg": 42.9994,
      "raan_deg": 154.6317,
      "arg_perigee_deg": 283.5186,
      "mean_anomaly_deg": 76.5527,
      "mean_motion_rev_day": 15.27592023
    },
    {
      "epoch": "2026-03-31T13:05:08.438784Z",
      "apogee_km": 484.12115905584415,
      "perigee_km": 481.85163665829987,
      "latitude_deg": 7.366968696206992e-06,
      "longitude_deg": 125.73286811308007,
      "height_km": 482.661933611021,
      "semi_major_axis_km": 6861.123397857072,
      "eccentricity": 0.00016539,
      "inclination_deg": 43.0042,
      "raan_deg": 150.9391,
      "arg_perigee_deg": 275.1493,
      "mean_anomaly_deg": 84.917,
      "mean_motion_rev_day": 15.27600939
    },
    {
      "epoch": "2026-04-01T20:28:15.302496Z",
      "apogee_km": 484.3089112914722,
      "perigee_km": 481.5905487290429,
      "latitude_deg": -1.748214991009806e-05,
      "longitude_deg": 6.279498505554883,
      "height_km": 482.6314437730126,
      "semi_major_axis_km": 6861.086730010257,
      "eccentricity": 0.0001981,
      "inclination_deg": 43.0064,
      "raan_deg": 143.5533,
      "arg_perigee_deg": 274.0573,
      "mean_anomaly_deg": 86.0052,
      "mean_motion_rev_day": 15.27613185
    },
    {
      "epoch": "2026-04-02T20:00:36.909792Z",
      "apogee_km": 483.9121266666234,
      "perigee_km": 482.14647413087823,
      "latitude_deg": 6.45244984522514e-05,
      "longitude_deg": 6.683330156565277,
      "height_km": 482.6667418052758,
      "semi_major_axis_km": 6861.1663003987505,
      "eccentricity": 0.00012867,
      "inclination_deg": 43.0048,
      "raan_deg": 138.0138,
      "arg_perigee_deg": 279.1048,
      "mean_anomaly_deg": 80.9659,
      "mean_motion_rev_day": 15.27586611
    },
    {
      "epoch": "2026-04-03T11:42:09.809856Z",
      "apogee_km": 484.01521550247253,
      "perigee_km": 481.74161221462873,
      "latitude_deg": 1.0730517090422749e-05,
      "longitude_deg": 126.96152234401825,
      "height_km": 482.62294064441465,
      "semi_major_axis_km": 6861.01541385855,
      "eccentricity": 0.00016569,
      "inclination_deg": 43.0014,
      "raan_deg": 134.3236,
      "arg_perigee_deg": 271.6401,
      "mean_anomaly_deg": 88.4261,
      "mean_motion_rev_day": 15.27637003
    },
    {
      "epoch": "2026-04-04T11:14:31.799040Z",
      "apogee_km": 484.46256655192155,
      "perigee_km": 481.7247982850231,
      "latitude_deg": -4.3348933994573e-06,
      "longitude_deg": 127.36185368616033,
      "height_km": 482.838625739462,
      "semi_major_axis_km": 6861.230682418472,
      "eccentricity": 0.00019951,
      "inclination_deg": 43.0023,
      "raan_deg": 128.7823,
      "arg_perigee_deg": 271.36,
      "mean_anomaly_deg": 88.7023,
      "mean_motion_rev_day": 15.2756511
    },
    {
      "epoch": "2026-04-05T10:46:53.577408Z",
      "apogee_km": 484.49962955661067,
      "perigee_km": 481.6157322083436,
      "latitude_deg": -3.2524127958736153e-06,
      "longitude_deg": 127.76548222679608,
      "height_km": 482.6861821473699,
      "semi_major_axis_km": 6861.194680882477,
      "eccentricity": 0.00021016,
      "inclination_deg": 43.0012,
      "raan_deg": 123.2434,
      "arg_perigee_deg": 275.9269,
      "mean_anomaly_deg": 84.1343,
      "mean_motion_rev_day": 15.27577133
    },
    {
      "epoch": "2026-04-05T18:37:40.674144Z",
      "apogee_km": 483.959722032987,
      "perigee_km": 482.0879973504634,
      "latitude_deg": -3.4946058336627725e-05,
      "longitude_deg": 7.899470595771384,
      "height_km": 482.7491602194255,
      "semi_major_axis_km": 6861.160859691725,
      "eccentricity": 0.0001364,
      "inclination_deg": 42.9993,
      "raan_deg": 121.3959,
      "arg_perigee_deg": 273.1424,
      "mean_anomaly_deg": 86.9271,
      "mean_motion_rev_day": 15.27588428
    },
    {
      "epoch": "2026-04-06T02:28:27.330240Z",
      "apogee_km": 484.09428606065376,
      "perigee_km": 481.9512714153634,
      "latitude_deg": 2.3516189346441944e-05,
      "longitude_deg": -111.96240393239698,
      "height_km": 482.8009942690613,
      "semi_major_axis_km": 6861.159778738009,
      "eccentricity": 0.00015617,
      "inclination_deg": 43.001,
      "raan_deg": 119.5506,
      "arg_perigee_deg": 269.9319,
      "mean_anomaly_deg": 90.1354,
      "mean_motion_rev_day": 15.27588789
    },
    {
      "epoch": "2026-04-07T17:42:21.555072Z",
      "apogee_km": 483.53733415482475,
      "perigee_km": 482.53697496308996,
      "latitude_deg": 2.639241989977527e-05,
      "longitude_deg": 8.717468084609656,
      "height_km": 482.66773901880447,
      "semi_major_axis_km": 6861.1741545589575,
      "eccentricity": 7.29e-05,
      "inclination_deg": 42.9987,
      "raan_deg": 110.3176,
      "arg_perigee_deg": 286.8965,
      "mean_anomaly_deg": 73.1807,
      "mean_motion_rev_day": 15.27583988
    },
    {
      "epoch": "2026-04-08T09:23:55.415904Z",
      "apogee_km": 483.9828573449522,
      "perigee_km": 482.08546907147775,
      "latitude_deg": -1.3593902323142814e-05,
      "longitude_deg": 128.99095876820067,
      "height_km": 482.8165794162216,
      "semi_major_axis_km": 6861.171163208214,
      "eccentricity": 0.00013827,
      "inclination_deg": 43.0027,
      "raan_deg": 106.6267,
      "arg_perigee_deg": 269.6722,
      "mean_anomaly_deg": 90.3971,
      "mean_motion_rev_day": 15.27584987
    },
    {
      "epoch": "2026-04-09T01:05:29.332896Z",
      "apogee_km": 483.73510157102646,
      "perigee_km": 482.3167619697706,
      "latitude_deg": -2.3268048418408834e-05,
      "longitude_deg": -110.7379528961605,
      "height_km": 482.76357195450294,
      "semi_major_axis_km": 6861.162931770398,
      "eccentricity": 0.00010336,
      "inclination_deg": 43.0008,
      "raan_deg": 102.9336,
      "arg_perigee_deg": 273.1399,
      "mean_anomaly_deg": 86.9334,
      "mean_motion_rev_day": 15.27587736
    },
    {
      "epoch": "2026-04-10T08:28:37.543584Z",
      "apogee_km": 484.0192746548255,
      "perigee_km": 482.1406734473312,
      "latitude_deg": 2.24661544839297e-05,
      "longitude_deg": 129.80301968755782,
      "height_km": 482.59941909517676,
      "semi_major_axis_km": 6861.216974051078,
      "eccentricity": 0.0001369,
      "inclination_deg": 43.0005,
      "raan_deg": 95.5477,
      "arg_perigee_deg": 285.8967,
      "mean_anomaly_deg": 74.1734,
      "mean_motion_rev_day": 15.27569688
    }
  ]
}